{
  "norad_id": 67757,
  "name": "JAM-E JAM 1",
  "history": [
    {
      "epoch": "2026-03-27T11:33:51.422688Z",
      "apogee_km": 35797.72534948403,
      "perigee_km": 35772.47800216495,
      "latitude_deg": 0.42346663855757205,
      "longitude_deg": 34.045030530648006,
      "height_km": 35772.42257877873,
      "semi_major_axis_km": 42163.23867582449,
      "eccentricity": 0.0002994,
      "inclination_deg": 0.4497,
      "raan_deg": 287.7045,
      "arg_perigee_deg": 121.2085,
      "mean_anomaly_deg": 343.498,
      "mean_motion_rev_day": 1.00277112
    }
  ]
}